STARLINK-1112
1 44925U 20001M   22027.86897887  .00001217  00000-0  10056-3 0  9997
2 44925  53.0534 248.5495 0002086  62.1041 298.0159 15.06402900113481
STARLINK-1113
1 44926U 20001N   22027.86867844  .00002624  00000-0  19916-3 0  9995
2 44926  52.9980 248.5555 0001887  72.7214 287.3980 15.05593115114201
STARLINK-1114
1 44927U 20001P   22027.88003702  .00001422  00000-0  11432-3 0  9993
2 44927  53.0534 248.4984 0001999  69.2899 290.8304 15.06404995113495
STARLINK-1119
1 44928U 20001Q   22027.87636093  .00001357  00000-0  11000-3 0  9996
2 44928  53.0523 248.5300 0001783  70.4044 289.7137 15.06391016113494
STARLINK-1121
1 44929U 20001R   22027.92796539  .00002680  00000-0  19877-3 0  9995
2 44929  53.0527 248.2815 0001813  70.2234 289.8950 15.06399375113490
STARLINK-1123
1 44930U 20001S   22027.89477964 -.00000019  00000-0  17646-4 0  9999
2 44930  53.0519 248.4387 0001841  69.5499 290.5687 15.06398654113499
STARLINK-1128
1 44931U 20001T   22027.87386602  .00004036  00000-0  26318-3 0  9993
2 44931  53.0520 247.1440 0003036 103.1766 256.9563 15.10008682114256
STARLINK-1130 (DARKSAT)
1 44932U 20001U   22027.88372355  .00001999  00000-0  15304-3 0  9993
2 44932  53.0525 248.4939 0001777  64.5403 295.5769 15.06407797114721
STARLINK-1144
1 44933U 20001V   22027.84317646 -.00000759  00000-0 -32038-4 0  9991
2 44933  53.0533 248.6749 0001830  77.1170 283.0023 15.06398461114770
STARLINK-1071
1 44934U 20001W   22027.92242694  .00001699  00000-0  13292-3 0  9993
2 44934  53.0528 228.3162 0001769  85.9963 274.1229 15.06401113113774
STARLINK-1079
1 44937U 20001Z   22027.83396455  .00002245  00000-0  16956-3 0  9999
2 44937  53.0523 228.7158 0002005  77.2161 282.9052 15.06400569113763
STARLINK-1082
1 44938U 20001AA  22027.93349654  .00005340  00000-0  37688-3 0  9994
2 44938  53.0522 228.2657 0001581  60.1914 299.9232 15.06423561113773
STARLINK-1083
1 44939U 20001AB  22027.87450228  .00001202  00000-0  99570-4 0  9990
2 44939  53.0532 228.5324 0001931  75.3659 284.7544 15.06400872113769
STARLINK-1091
1 44940U 20001AC  22027.88558279  .00000780  00000-0  71293-4 0  9990
2 44940  53.0535 228.4780 0002008  71.2349 288.8857 15.06385695113763
STARLINK-1094
1 44941U 20001AD  22027.84133592 -.00003322  00000-0 -20430-3 0  9997
2 44941  53.0538 228.6776 0001559  76.8429 283.2734 15.06386249113763
STARLINK-1096
1 44942U 20001AE  22027.82659238  .00000743  00000-0  68758-4 0  9994
2 44942  53.0529 228.7450 0002091  73.9567 286.1653 15.06398542113768
STARLINK-1100
1 44943U 20001AF  22027.87083089  .00001937  00000-0  14890-3 0  9998
2 44943  53.0526 228.5503 0001963  74.1090 286.0115 15.06398545113769
STARLINK-1108
1 44944U 20001AG  22027.91874338 -.00000770  00000-0 -32776-4 0  9999
2 44944  53.0535 228.3304 0002238  71.9265 288.1968 15.06402427113777
STARLINK-1109
1 44945U 20001AH  22027.88188893  .00002591  00000-0  19272-3 0  9996
2 44945  53.0524 228.4914 0001946  76.2991 283.8214 15.06411801113764
STARLINK-1110
1 44946U 20001AJ  22027.86366031  .00002646  00000-0  18072-3 0  9995
2 44946  53.0030 222.6039 0003088 105.5508 254.5823 15.09585989113820
STARLINK-1116
1 44947U 20001AK  22027.90400109  .00000999  00000-0  85980-4 0  9998
2 44947  53.0522 228.3889 0001879  73.3470 286.7725 15.06399788113778
STARLINK-1122
1 44949U 20001AM  22027.92979378  .00000578  00000-0  57720-4 0  9995
2 44949  53.0525 228.2894 0002029  69.5003 290.6204 15.06400910113771
STARLINK-1125
1 44950U 20001AN  22027.81185830  .00000840  00000-0  75327-4 0  9992
2 44950  53.0527 228.8110 0001860  76.9673 283.1523 15.06393457113755
STARLINK-1126
1 44951U 20001AP  22027.87234195  .00002995  00000-0  20302-3 0  9993
2 44951  53.0023 223.2013 0003225 103.6553 256.4796 15.09425117115108
STARLINK-1117
1 44952U 20001AQ  22027.84502759  .00001151  00000-0  96139-4 0  9990
2 44952  53.0527 228.6621 0002084  76.3878 283.7343 15.06413392113760
STARLINK-1124
1 44953U 20001AR  22027.86251807  .00002042  00000-0  15589-3 0  9997
2 44953  53.0514 228.5843 0001953  75.6725 284.4481 15.06412471115051
STARLINK-1066
1 44954U 20001AS  22027.87636085  .00000972  00000-0  84141-4 0  9995
2 44954  53.0527 208.5152 0002154  83.9743 276.1491 15.06396375113997
STARLINK-1069
1 44955U 20001AT  22027.88373457 -.00000627  00000-0 -23205-4 0  9991
2 44955  53.0543 208.5019 0002075  81.1844 278.9380 15.06396432113993
STARLINK-1070
1 44956U 20001AU  22027.88004805 -.00000738  00000-0 -30628-4 0  9990
2 44956  53.0533 208.5112 0002106  79.2779 280.8447 15.06393955114058
STARLINK-1074
1 44957U 20001AV  22027.90583869  .00001043  00000-0  88884-4 0  9991
2 44957  53.0541 208.3984 0002155  81.3131 278.8102 15.06407741114057
STARLINK-1076
1 44959U 20001AX  22027.92045633  .00002088  00000-0  15883-3 0  9995
2 44959  53.0514 208.3279 0002291  78.2678 281.8568 15.06447305114058
STARLINK-1080
1 44961U 20001AZ  22027.79526636 -.00000812  00000-0 -35559-4 0  9998
2 44961  53.0542 208.8898 0002383  82.2722 277.8537 15.06401576114041
STARLINK-1085
1 44963U 20001BB  22027.87513839  .00009583  00000-0  60502-3 0  9997
2 44963  52.9971 202.7066 0001646  86.0897 274.0281 15.09699305114837
STARLINK-1086
1 44964U 20001BC  22027.89110249 -.00000679  00000-0 -26663-4 0  9998
2 44964  53.0529 208.4528 0001923  93.0015 267.1194 15.06394848114054
STARLINK-1088
1 44966U 20001BE  22027.78052859  .00001398  00000-0  11270-3 0  9994
2 44966  53.0540 208.9522 0002078  83.6759 276.4467 15.06407117114038
STARLINK-1089
1 44967U 20001BF  22027.86898511  .00000983  00000-0  84909-4 0  9996
2 44967  53.0544 208.5641 0002173  77.1417 282.9815 15.06396109114055
STARLINK-1090
1 44968U 20001BG  22027.86530052  .00000920  00000-0  80676-4 0  9998
2 44968  53.0541 208.5720 0002088  75.8608 284.2613 15.06395723114055
